{"type": "FeatureCollection", "features": [ {"type": "Feature", "properties": {"norad_id": 35660, "name": "COSMOS 2251 DEB", "group": "cosmos-2251-debris", "lat": -0.9808825721817049, "lon": 125.43160359997934, "alt_km": 727.5471210705564, "timestamp": "2025-12-16T17:51:11.328787+00:00", "meta": {"OBJECT_NAME": "COSMOS 2251 DEB", "OBJECT_ID": "1993-036APB", "EPOCH": "2025-12-15T02:38:46.156416", "MEAN_MOTION": 14.49937403, "ECCENTRICITY": 0.00182984, "INCLINATION": 74.0379, "RA_OF_ASC_NODE": 128.7781, "ARG_OF_PERICENTER": 277.071, "MEAN_ANOMALY": 198.1224, "EPHEMERIS_TYPE": 0, "CLASSIFICATION_TYPE": "U", "NORAD_CAT_ID": 35660, "ELEMENT_SET_NO": 999, "REV_AT_EPOCH": 65905, "BSTAR": 0.00040464315, "MEAN_MOTION_DOT": 1.541e-05, "MEAN_MOTION_DDOT": 0}, "tle": {"line1": "1 35660U 93036APB 25349.11025644  .00001541  00000+0  40464-3 0  9998", "line2": "2 35660  74.0379 128.7781 0018298 277.0710 198.1224 14.49937403659054"}}, "geometry": {"type": "Point", "coordinates": [125.43160359997934, -0.9808825721817049]}}, {"type": "Feature", "properties": {"norad_id": 35661, "name": "COSMOS 2251 DEB", "group": "cosmos-2251-debris", "lat": 15.480005875942146, "lon": -112.80399204628232, "alt_km": 548.8139895426748, "timestamp": "2025-12-16T17:51:11.328797+00:00", "meta": {"OBJECT_NAME": "COSMOS 2251 DEB", "OBJECT_ID": "1993-036APC", "EPOCH": "2025-12-14T23:07:33.863232", "MEAN_MOTION": 14.86609518, "ECCENTRICITY": 0.0087678, "INCLINATION": 74.014, "RA_OF_ASC_NODE": 75.2968, "ARG_OF_PERICENTER": 178.9387, "MEAN_ANOMALY": 181.1997, "EPHEMERIS_TYPE": 0, "CLASSIFICATION_TYPE": "U", "NORAD_CAT_ID": 35661, "ELEMENT_SET_NO": 999, "REV_AT_EPOCH": 87901, "BSTAR": 0.00055214088, "MEAN_MOTION_DOT": 5.218e-05, "MEAN_MOTION_DDOT": 0}, "tle": {"line1": "1 35661U 93036APC 25348.96358638  .00005218  00000+0  55214-3 0  9997", "line2": "2 35661  74.0140  75.2968 0087678 178.9387 181.1997 14.86609518879014"}}, "geometry": {"type": "Point", "coordinates": [-112.80399204628232, 15.480005875942146]}}, {"type": "Feature", "properties": {"norad_id": 35663, "name": "COSMOS 2251 DEB", "group": "cosmos-2251-debris", "lat": 65.38808534033554, "lon": -101.78241086723972, "alt_km": 667.2001304097421, "timestamp": "2025-12-16T17:51:11.328808+00:00", "meta": {"OBJECT_NAME": "COSMOS 2251 DEB", "OBJECT_ID": "1993-036APE", "EPOCH": "2025-12-13T02:32:21.539904", "MEAN_MOTION": 14.65684168, "ECCENTRICITY": 0.00063461, "INCLINATION": 74.0174, "RA_OF_ASC_NODE": 123.959, "ARG_OF_PERICENTER": 198.7091, "MEAN_ANOMALY": 161.3846, "EPHEMERIS_TYPE": 0, "CLASSIFICATION_TYPE": "U", "NORAD_CAT_ID": 35663, "ELEMENT_SET_NO": 999, "REV_AT_EPOCH": 73387, "BSTAR": 0.0025042609, "MEAN_MOTION_DOT": 0.00013628, "MEAN_MOTION_DDOT": 0}, "tle": {"line1": "1 35663U 93036APE 25347.10580486  .00013628  00000+0  25043-2 0  9992", "line2": "2 35663  74.0174 123.9590 0006346 198.7091 161.3846 14.65684168733877"}}, "geometry": {"type": "Point", "coordinates": [-101.78241086723972, 65.38808534033554]}}, {"type": "Feature", "properties": {"norad_id": 35667, "name": "COSMOS 2251 DEB", "group": "cosmos-2251-debris", "lat": 68.39596255083116, "lon": 178.68972234359958, "alt_km": 692.3741023909633, "timestamp": "2025-12-16T17:51:11.328818+00:00", "meta": {"OBJECT_NAME": "COSMOS 2251 DEB", "OBJECT_ID": "1993-036APJ", "EPOCH": "2025-12-14T16:10:30.846432", "MEAN_MOTION": 14.60047432, "ECCENTRICITY": 0.00195944, "INCLINATION": 74.0556, "RA_OF_ASC_NODE": 136.4208, "ARG_OF_PERICENTER": 197.4569, "MEAN_ANOMALY": 162.5926, "EPHEMERIS_TYPE": 0, "CLASSIFICATION_TYPE": "U", "NORAD_CAT_ID": 35667, "ELEMENT_SET_NO": 999, "REV_AT_EPOCH": 70831, "BSTAR": 0.0010671241, "MEAN_MOTION_DOT": 5.114e-05, "MEAN_MOTION_DDOT": 0}, "tle": {"line1": "1 35667U 93036APJ 25348.67396813  .00005114  00000+0  10671-2 0  9990", "line2": "2 35667  74.0556 136.4208 0019594 197.4569 162.5926 14.60047432708310"}}, "geometry": {"type": "Point", "coordinates": [178.68972234359958, 68.39596255083116]}}, {"type": "Feature", "properties": {"norad_id": 35668, "name": "COSMOS 2251 DEB", "group": "cosmos-2251-debris", "lat": -61.03665571094604, "lon": 63.96416695669623, "alt_km": 667.9297058051861, "timestamp": "2025-12-16T17:51:11.328828+00:00", "meta": {"OBJECT_NAME": "COSMOS 2251 DEB", "OBJECT_ID": "1993-036APK", "EPOCH": "2025-12-10T09:50:46.743936", "MEAN_MOTION": 14.63977041, "ECCENTRICITY": 0.00831886, "INCLINATION": 74.0449, "RA_OF_ASC_NODE": 224.9926, "ARG_OF_PERICENTER": 330.6481, "MEAN_ANOMALY": 29.0026, "EPHEMERIS_TYPE": 0, "CLASSIFICATION_TYPE": "U", "NORAD_CAT_ID": 35668, "ELEMENT_SET_NO": 999, "REV_AT_EPOCH": 87613, "BSTAR": 0.00039699898, "MEAN_MOTION_DOT": 2.154e-05, "MEAN_MOTION_DDOT": 0}, "tle": {"line1": "1 35668U 93036APK 25344.41026324  .00002154  00000+0  39700-3 0  9992", "line2": "2 35668  74.0449 224.9926 0083188 330.6481  29.0026 14.63977041876131"}}, "geometry": {"type": "Point", "coordinates": [63.96416695669623, -61.03665571094604]}}, {"type": "Feature", "properties": {"norad_id": 35669, "name": "COSMOS 2251 DEB", "group": "cosmos-2251-debris", "lat": 53.234258691409885, "lon": -49.92750831450491, "alt_km": 1258.419771298224, "timestamp": "2025-12-16T17:51:11.328839+00:00", "meta": {"OBJECT_NAME": "COSMOS 2251 DEB", "OBJECT_ID": "1993-036APL", "EPOCH": "2025-12-10T17:55:05.054592", "MEAN_MOTION": 13.57151778, "ECCENTRICITY": 0.03880721, "INCLINATION": 73.8635, "RA_OF_ASC_NODE": 162.6479, "ARG_OF_PERICENTER": 274.7966, "MEAN_ANOMALY": 80.8943, "EPHEMERIS_TYPE": 0, "CLASSIFICATION_TYPE": "U", "NORAD_CAT_ID": 35669, "ELEMENT_SET_NO": 999, "REV_AT_EPOCH": 60762, "BSTAR": 0.0012765304, "MEAN_MOTION_DOT": 1.459e-05, "MEAN_MOTION_DDOT": 0}, "tle": {"line1": "1 35669U 93036APL 25344.74658628  .00001459  00000+0  12765-2 0  9995", "line2": "2 35669  73.8635 162.6479 0388072 274.7966  80.8943 13.57151778607625"}}, "geometry": {"type": "Point", "coordinates": [-49.92750831450491, 53.234258691409885]}}, {"type": "Feature", "properties": {"norad_id": 35670, "name": "COSMOS 2251 DEB", "group": "cosmos-2251-debris", "lat": -60.96188745416791, "lon": -92.28277767825868, "alt_km": 609.3613237785321, "timestamp": "2025-12-16T17:51:11.328849+00:00", "meta": {"OBJECT_NAME": "COSMOS 2251 DEB", "OBJECT_ID": "1993-036APM", "EPOCH": "2025-12-14T21:21:55.582560", "MEAN_MOTION": 14.93987644, "ECCENTRICITY": 0.0037863, "INCLINATION": 73.8951, "RA_OF_ASC_NODE": 60.1197, "ARG_OF_PERICENTER": 20.3241, "MEAN_ANOMALY": 339.9438, "EPHEMERIS_TYPE": 0, "CLASSIFICATION_TYPE": "U", "NORAD_CAT_ID": 35670, "ELEMENT_SET_NO": 999, "REV_AT_EPOCH": 87759, "BSTAR": 0.00068268578, "MEAN_MOTION_DOT": 7.347e-05, "MEAN_MOTION_DDOT": 0}, "tle": {"line1": "1 35670U 93036APM 25348.89022665  .00007347  00000+0  68269-3 0  9996", "line2": "2 35670  73.8951  60.1197 0037863  20.3241 339.9438 14.93987644877599"}}, "geometry": {"type": "Point", "coordinates": [-92.28277767825868, -60.96188745416791]}}, {"type": "Feature", "properties": {"norad_id": 35671, "name": "COSMOS 2251 DEB", "group": "cosmos-2251-debris", "lat": 26.427804513807718, "lon": 79.99983303050766, "alt_km": 753.145600337607, "timestamp": "2025-12-16T17:51:11.328860+00:00", "meta": {"OBJECT_NAME": "COSMOS 2251 DEB", "OBJECT_ID": "1993-036APN", "EPOCH": "2025-12-12T06:07:34.704192", "MEAN_MOTION": 14.48347657, "ECCENTRICITY": 0.00414664, "INCLINATION": 74.018, "RA_OF_ASC_NODE": 80.2233, "ARG_OF_PERICENTER": 254.3311, "MEAN_ANOMALY": 138.579, "EPHEMERIS_TYPE": 0, "CLASSIFICATION_TYPE": "U", "NORAD_CAT_ID": 35671, "ELEMENT_SET_NO": 999, "REV_AT_EPOCH": 86756, "BSTAR": 0.00036575096, "MEAN_MOTION_DOT": 1.355e-05, "MEAN_MOTION_DDOT": 0}, "tle": {"line1": "1 35671U 93036APN 25346.25526278  .00001355  00000+0  36575-3 0  9992", "line2": "2 35671  74.0180  80.2233 0041466 254.3311 138.5790 14.48347657867566"}}, "geometry": {"type": "Point", "coordinates": [79.99983303050766, 26.427804513807718]}}, {"type": "Feature", "properties": {"norad_id": 35674, "name": "COSMOS 2251 DEB", "group": "cosmos-2251-debris", "lat": -11.761478854360462, "lon": -54.46273473258718, "alt_km": 647.8494113149782, "timestamp": "2025-12-16T17:51:11.328870+00:00", "meta": {"OBJECT_NAME": "COSMOS 2251 DEB", "OBJECT_ID": "1993-036APR", "EPOCH": "2025-12-15T15:29:32.958240", "MEAN_MOTION": 14.54257795, "ECCENTRICITY": 0.00961311, "INCLINATION": 74.0597, "RA_OF_ASC_NODE": 311.022, "ARG_OF_PERICENTER": 355.1277, "MEAN_ANOMALY": 4.8939, "EPHEMERIS_TYPE": 0, "CLASSIFICATION_TYPE": "U", "NORAD_CAT_ID": 35674, "ELEMENT_SET_NO": 999, "REV_AT_EPOCH": 86153, "BSTAR": 0.0013284232, "MEAN_MOTION_DOT": 5.963e-05, "MEAN_MOTION_DDOT": 0}, "tle": {"line1": "1 35674U 93036APR 25349.64552035  .00005963  00000+0  13284-2 0  9991", "line2": "2 35674  74.0597 311.0220 0096131 355.1277   4.8939 14.54257795861533"}}, "geometry": {"type": "Point", "coordinates": [-54.46273473258718, -11.761478854360462]}}, {"type": "Feature", "properties": {"norad_id": 35701, "name": "COSMOS 2251 DEB", "group": "cosmos-2251-debris", "lat": -42.53296229317848, "lon": -79.60729231910446, "alt_km": 1176.8132860364967, "timestamp": "2025-12-16T17:51:11.328880+00:00", "meta": {"OBJECT_NAME": "COSMOS 2251 DEB", "OBJECT_ID": "1993-036APW", "EPOCH": "2025-12-06T05:57:57.623904", "MEAN_MOTION": 13.80843435, "ECCENTRICITY": 0.02897209, "INCLINATION": 74.0028, "RA_OF_ASC_NODE": 313.2955, "ARG_OF_PERICENTER": 164.0681, "MEAN_ANOMALY": 196.98, "EPHEMERIS_TYPE": 0, "CLASSIFICATION_TYPE": "U", "NORAD_CAT_ID": 35701, "ELEMENT_SET_NO": 999, "REV_AT_EPOCH": 62069, "BSTAR": 0.0021223911, "MEAN_MOTION_DOT": 3.05e-05, "MEAN_MOTION_DDOT": 0}, "tle": {"line1": "1 35701U 93036APW 25340.24858361  .00003050  00000+0  21224-2 0  9998", "line2": "2 35701  74.0028 313.2955 0289720 164.0681 196.9800 13.80843435620696"}}, "geometry": {"type": "Point", "coordinates": [-79.60729231910446, -42.53296229317848]}}]}